{"type":"Topology","objects":{"transit":{"type":"GeometryCollection","geometries":[{"type":"Point","coordinates":[-84.467627,33.789892],"properties":{"FIPS":13121,"county":"FULTON"}},{"type":"Point","coordinates":[-84.226356,33.77148],"properties":{"FIPS":13089,"county":"DEKALB"}},{"type":"Point","coordinates":[-84.576684,33.941426],"properties":{"FIPS":13067,"county":"COBB"}},{"type":"Point","coordinates":[-84.023657,33.961676],"properties":{"FIPS":13135,"county":"GWINNETT"}},{"type":"Point","coordinates":[-84.357684,33.541836],"properties":{"FIPS":13063,"county":"CLAYTON"}},{"type":"Point","coordinates":[-84.476236,34.243896],"properties":{"FIPS":13057,"county":"CHEROKEE"}},{"type":"Point","coordinates":[-84.125061,34.225486],"properties":{"FIPS":13117,"county":"FORSYTH"}},{"type":"Point","coordinates":[-84.867312,33.920496],"properties":{"FIPS":13223,"county":"PAULDING"}},{"type":"Point","coordinates":[-84.154174,33.452972],"properties":{"FIPS":13151,"county":"HENRY"}},{"type":"Point","coordinates":[-83.819766,34.316798],"properties":{"FIPS":13139,"county":"HALL"}},{"type":"Point","coordinates":[-84.767979,33.701813],"properties":{"FIPS":13097,"county":"DOUGLAS"}},{"type":"Point","coordinates":[-83.733833,33.781544],"properties":{"FIPS":13297,"county":"WALTON"}},{"type":"Point","coordinates":[-84.494169,33.4139],"properties":{"FIPS":13113,"county":"FAYETTE"}},{"type":"Point","coordinates":[-83.712737,33.993199],"properties":{"FIPS":13013,"county":"BARROW"}},{"type":"Point","coordinates":[-84.026652,33.65421],"properties":{"FIPS":13247,"county":"ROCKDALE"}},{"type":"Point","coordinates":[-83.850189,33.555014],"properties":{"FIPS":13217,"county":"NEWTON"}},{"type":"Point","coordinates":[-84.763334,33.353446],"properties":{"FIPS":13077,"county":"COWETA"}},{"type":"Point","coordinates":[-84.840525,34.237806],"properties":{"FIPS":13015,"county":"BARTOW"}},{"type":"Point","coordinates":[-85.079807,33.582781],"properties":{"FIPS":13045,"county":"CARROLL"}},{"type":"Point","coordinates":[-84.284165,33.260886],"properties":{"FIPS":13255,"county":"SPALDING"}},{"type":"Point","coordinates":[-84.17054,34.44427],"properties":{"FIPS":13085,"county":"DAWSON"}}]}},"arcs":[],"bbox":[-85.079807,33.260886,-83.712737,34.44427]}
